{"fetched_at":"2026-03-29T02:12:04Z","count":15717,"tles":[{"name":"CLUSTER II-FM8 (TANGO)","line1":"1 26464U 00045B   26089.60558470  .00002560  00000+0  00000+0 0  9992","line2":"2 26464 149.6410  39.0046 8956751 255.1525   0.3931  0.44399863 19953","category":"Other"}]}